{
  "type": "FeatureCollection",
  "features": [
    {
      "type": "Feature",
      "properties": {
        "norad_id": 25590,
        "name": "COSMOS 2361",
        "group": "musson",
        "lat": -6.3878497063619974,
        "lon": 163.82890586391434,
        "alt_km": 986.0298640216852,
        "timestamp": "2025-12-14T03:55:53.057261+00:00",
        "meta_object_name": "COSMOS 2361",
        "meta_object_id": "1998-076A",
        "meta_epoch": "2025-12-13T08:22:44.296320",
        "meta_mean_motion": 13.73217615,
        "meta_eccentricity": 0.00300598,
        "meta_inclination": 82.9339,
        "meta_ra_of_asc_node": 343.6356,
        "meta_arg_of_pericenter": 263.827,
        "meta_mean_anomaly": 217.6302,
        "meta_ephemeris_type": 0,
        "meta_classification_type": "U",
        "meta_norad_cat_id": 25590,
        "meta_element_set_no": 999,
        "meta_rev_at_epoch": 35119,
        "meta_bstar": 9.8591164e-05,
        "meta_mean_motion_dot": 1.06e-06,
        "meta_mean_motion_ddot": 0,
        "tle_line1": "1 25590U 98076A   25347.34912380  .00000106  00000+0  98591-4 0  9994",
        "tle_line2": "2 25590  82.9339 343.6356 0030059 263.8270 217.6302 13.73217615351198"
      },
      "geometry": {
        "type": "Point",
        "coordinates": [
          163.82890586391434,
          -6.3878497063619974
        ]
      }
    },
    {
      "type": "Feature",
      "properties": {
        "norad_id": 26818,
        "name": "COSMOS 2378",
        "group": "musson",
        "lat": -80.96065331577574,
        "lon": -130.03495069633607,
        "alt_km": 981.3734177978495,
        "timestamp": "2025-12-14T03:55:53.057285+00:00",
        "meta_object_name": "COSMOS 2378",
        "meta_object_id": "2001-023A",
        "meta_epoch": "2025-12-13T07:28:41.960928",
        "meta_mean_motion": 13.74142075,
        "meta_eccentricity": 0.00324289,
        "meta_inclination": 82.9272,
        "meta_ra_of_asc_node": 359.3009,
        "meta_arg_of_pericenter": 203.2851,
        "meta_mean_anomaly": 167.2894,
        "meta_ephemeris_type": 0,
        "meta_classification_type": "U",
        "meta_norad_cat_id": 26818,
        "meta_element_set_no": 999,
        "meta_rev_at_epoch": 22931,
        "meta_bstar": 7.0041135e-05,
        "meta_mean_motion_dot": 8.1e-07,
        "meta_mean_motion_ddot": 0,
        "tle_line1": "1 26818U 01023A   25347.31159677  .00000081  00000+0  70041-4 0  9995",
        "tle_line2": "2 26818  82.9272 359.3009 0032428 203.2851 167.2894 13.74142075229314"
      },
      "geometry": {
        "type": "Point",
        "coordinates": [
          -130.03495069633607,
          -80.96065331577574
        ]
      }
    },
    {
      "type": "Feature",
      "properties": {
        "norad_id": 27436,
        "name": "COSMOS 2389",
        "group": "musson",
        "lat": 62.511795915789655,
        "lon": 112.1724197301672,
        "alt_km": 957.2756089472659,
        "timestamp": "2025-12-14T03:55:53.057298+00:00",
        "meta_object_name": "COSMOS 2389",
        "meta_object_id": "2002-026A",
        "meta_epoch": "2025-12-13T06:58:09.077376",
        "meta_mean_motion": 13.7515476,
        "meta_eccentricity": 0.00476017,
        "meta_inclination": 82.9503,
        "meta_ra_of_asc_node": 306.5769,
        "meta_arg_of_pericenter": 59.2443,
        "meta_mean_anomaly": 55.3679,
        "meta_ephemeris_type": 0,
        "meta_classification_type": "U",
        "meta_norad_cat_id": 27436,
        "meta_element_set_no": 999,
        "meta_rev_at_epoch": 18156,
        "meta_bstar": 9.5002304e-05,
        "meta_mean_motion_dot": 1.07e-06,
        "meta_mean_motion_ddot": 0,
        "tle_line1": "1 27436U 02026A   25347.29038284  .00000107  00000+0  95002-4 0  9996",
        "tle_line2": "2 27436  82.9503 306.5769 0047601  59.2443  55.3679 13.75154760181567"
      },
      "geometry": {
        "type": "Point",
        "coordinates": [
          112.1724197301672,
          62.511795915789655
        ]
      }
    },
    {
      "type": "Feature",
      "properties": {
        "norad_id": 27818,
        "name": "COSMOS 2398",
        "group": "musson",
        "lat": 53.65258218617961,
        "lon": -78.66761236027237,
        "alt_km": 971.6473876147065,
        "timestamp": "2025-12-14T03:55:53.057310+00:00",
        "meta_object_name": "COSMOS 2398",
        "meta_object_id": "2003-023A",
        "meta_epoch": "2025-12-13T07:12:48.373632",
        "meta_mean_motion": 13.72385862,
        "meta_eccentricity": 0.00325866,
        "meta_inclination": 82.9485,
        "meta_ra_of_asc_node": 272.285,
        "meta_arg_of_pericenter": 110.3039,
        "meta_mean_anomaly": 1.7502,
        "meta_ephemeris_type": 0,
        "meta_classification_type": "U",
        "meta_norad_cat_id": 27818,
        "meta_element_set_no": 999,
        "meta_rev_at_epoch": 12824,
        "meta_bstar": 7.7554345e-05,
        "meta_mean_motion_dot": 8.7e-07,
        "meta_mean_motion_ddot": 0,
        "tle_line1": "1 27818U 03023A   25347.30055988  .00000087  00000+0  77554-4 0  9999",
        "tle_line2": "2 27818  82.9485 272.2850 0032586 110.3039   1.7502 13.72385862128248"
      },
      "geometry": {
        "type": "Point",
        "coordinates": [
          -78.66761236027237,
          53.65258218617961
        ]
      }
    },
    {
      "type": "Feature",
      "properties": {
        "norad_id": 28380,
        "name": "COSMOS 2407",
        "group": "musson",
        "lat": -82.95456206689391,
        "lon": 123.13264760606857,
        "alt_km": 1007.2841520461843,
        "timestamp": "2025-12-14T03:55:53.057321+00:00",
        "meta_object_name": "COSMOS 2407",
        "meta_object_id": "2004-028A",
        "meta_epoch": "2025-12-13T04:32:15.389664",
        "meta_mean_motion": 13.76313758,
        "meta_eccentricity": 0.00403079,
        "meta_inclination": 82.9606,
        "meta_ra_of_asc_node": 212.5601,
        "meta_arg_of_pericenter": 53.6159,
        "meta_mean_anomaly": 69.982,
        "meta_ephemeris_type": 0,
        "meta_classification_type": "U",
        "meta_norad_cat_id": 28380,
        "meta_element_set_no": 999,
        "meta_rev_at_epoch": 7429,
        "meta_bstar": 7.3713139e-05,
        "meta_mean_motion_dot": 8.8e-07,
        "meta_mean_motion_ddot": 0,
        "tle_line1": "1 28380U 04028A   25347.18906701  .00000088  00000+0  73713-4 0  9998",
        "tle_line2": "2 28380  82.9606 212.5601 0040307  53.6159  69.9820 13.76313758 74294"
      },
      "geometry": {
        "type": "Point",
        "coordinates": [
          123.13264760606857,
          -82.95456206689391
        ]
      }
    },
    {
      "type": "Feature",
      "properties": {
        "norad_id": 28521,
        "name": "COSMOS 2414",
        "group": "musson",
        "lat": -53.18767383277628,
        "lon": 13.101537497862989,
        "alt_km": 947.0508605676587,
        "timestamp": "2025-12-14T03:55:53.057332+00:00",
        "meta_object_name": "COSMOS 2414",
        "meta_object_id": "2005-002A",
        "meta_epoch": "2025-12-13T06:02:59.709408",
        "meta_mean_motion": 13.87902959,
        "meta_eccentricity": 0.00409251,
        "meta_inclination": 82.949,
        "meta_ra_of_asc_node": 184.2726,
        "meta_arg_of_pericenter": 138.2365,
        "meta_mean_anomaly": 222.1935,
        "meta_ephemeris_type": 0,
        "meta_classification_type": "U",
        "meta_norad_cat_id": 28521,
        "meta_element_set_no": 999,
        "meta_rev_at_epoch": 5802,
        "meta_bstar": 7.6924243e-05,
        "meta_mean_motion_dot": 1.08e-06,
        "meta_mean_motion_ddot": 0,
        "tle_line1": "1 28521U 05002A   25347.25207997  .00000108  00000+0  76924-4 0  9997",
        "tle_line2": "2 28521  82.9490 184.2726 0040925 138.2365 222.1935 13.87902959 58022"
      },
      "geometry": {
        "type": "Point",
        "coordinates": [
          13.101537497862989,
          -53.18767383277628
        ]
      }
    },
    {
      "type": "Feature",
      "properties": {
        "norad_id": 32052,
        "name": "COSMOS 2429",
        "group": "musson",
        "lat": -57.873862262069935,
        "lon": -29.05622536184931,
        "alt_km": 989.3452563379496,
        "timestamp": "2025-12-14T03:55:53.057342+00:00",
        "meta_object_name": "COSMOS 2429",
        "meta_object_id": "2007-038A",
        "meta_epoch": "2025-12-13T05:30:49.030560",
        "meta_mean_motion": 13.75149412,
        "meta_eccentricity": 0.00392138,
        "meta_inclination": 82.9804,
        "meta_ra_of_asc_node": 342.9475,
        "meta_arg_of_pericenter": 36.5264,
        "meta_mean_anomaly": 323.8555,
        "meta_ephemeris_type": 0,
        "meta_classification_type": "U",
        "meta_norad_cat_id": 32052,
        "meta_element_set_no": 999,
        "meta_rev_at_epoch": 91609,
        "meta_bstar": 8.2428537e-05,
        "meta_mean_motion_dot": 9.5e-07,
        "meta_mean_motion_ddot": 0,
        "tle_line1": "1 32052U 07038A   25347.22973415  .00000095  00000+0  82429-4 0  9996",
        "tle_line2": "2 32052  82.9804 342.9475 0039213  36.5264 323.8555 13.75149412916096"
      },
      "geometry": {
        "type": "Point",
        "coordinates": [
          -29.05622536184931,
          -57.873862262069935
        ]
      }
    },
    {
      "type": "Feature",
      "properties": {
        "norad_id": 35635,
        "name": "COSMOS 2454",
        "group": "musson",
        "lat": -65.42964879678186,
        "lon": 151.8745714873847,
        "alt_km": 946.8641529794131,
        "timestamp": "2025-12-14T03:55:53.057353+00:00",
        "meta_object_name": "COSMOS 2454",
        "meta_object_id": "2009-039A",
        "meta_epoch": "2025-12-13T06:36:59.691168",
        "meta_mean_motion": 13.89928767,
        "meta_eccentricity": 0.0020425,
        "meta_inclination": 82.9554,
        "meta_ra_of_asc_node": 168.2388,
        "meta_arg_of_pericenter": 72.3112,
        "meta_mean_anomaly": 100.1283,
        "meta_ephemeris_type": 0,
        "meta_classification_type": "U",
        "meta_norad_cat_id": 35635,
        "meta_element_set_no": 999,
        "meta_rev_at_epoch": 83157,
        "meta_bstar": 8.6786869e-05,
        "meta_mean_motion_dot": 1.23e-06,
        "meta_mean_motion_ddot": 0,
        "tle_line1": "1 35635U 09039A   25347.27569087  .00000123  00000+0  86787-4 0  9993",
        "tle_line2": "2 35635  82.9554 168.2388 0020425  72.3112 100.1283 13.89928767831571"
      },
      "geometry": {
        "type": "Point",
        "coordinates": [
          151.8745714873847,
          -65.42964879678186
        ]
      }
    },
    {
      "type": "Feature",
      "properties": {
        "norad_id": 36519,
        "name": "COSMOS 2463",
        "group": "musson",
        "lat": -59.499254602289454,
        "lon": -142.22680663179023,
        "alt_km": 982.2533131634591,
        "timestamp": "2025-12-14T03:55:53.057363+00:00",
        "meta_object_name": "COSMOS 2463",
        "meta_object_id": "2010-017A",
        "meta_epoch": "2025-12-13T06:05:34.171008",
        "meta_mean_motion": 13.71649221,
        "meta_eccentricity": 0.00347894,
        "meta_inclination": 82.9613,
        "meta_ra_of_asc_node": 26.3349,
        "meta_arg_of_pericenter": 286.5868,
        "meta_mean_anomaly": 143.1683,
        "meta_ephemeris_type": 0,
        "meta_classification_type": "U",
        "meta_norad_cat_id": 36519,
        "meta_element_set_no": 999,
        "meta_rev_at_epoch": 78244,
        "meta_bstar": 5.4429562e-05,
        "meta_mean_motion_dot": 6.4e-07,
        "meta_mean_motion_ddot": 0,
        "tle_line1": "1 36519U 10017A   25347.25386772  .00000064  00000+0  54430-4 0  9993",
        "tle_line2": "2 36519  82.9613  26.3349 0034789 286.5868 143.1683 13.71649221782443"
      },
      "geometry": {
        "type": "Point",
        "coordinates": [
          -142.22680663179023,
          -59.499254602289454
        ]
      }
    }
  ]
}